IRIDIUM 174             
1 56728U 23068U   25136.08558167  .00000822  00000+0  12641-3 0  9992
2 56728  86.6122 159.6966 0001276  70.3939 289.7416 14.72265890107597
IRIDIUM 178             
1 56729U 23068V   25136.21983565  .00001013  00000+0  12990-3 0  9992
2 56729  86.6592 191.1671 0002225  88.9255 271.2222 14.80224406107648
IRIDIUM 179             
1 56730U 23068W   25136.21447419  .00001154  00000+0  14844-3 0  9993
2 56730  86.6835 198.9430 0002573  97.6955 262.4559 14.80229969107642
